{
 "crs": {
  "properties": {
   "name": "urn:ogc:def:crs:EPSG::4326"
  },
  "type": "name"
 },
 "features": [
  {
   "geometry": {
    "coordinates": [
     16.37630765,
     48.18712257
    ],
    "type": "Point"
   },
   "geometry_name": "SHAPE",
   "id": "GEBAEUDEINFOOGD.175021810",
   "properties": {
    "ACD": "008171",
    "ARCHITEKT": null,
    "BASIS_INV": "1997-09-14Z",
    "BAUJAHR": null,
    "BEZ": "04",
    "BISA": null,
    "BISN": null,
    "CONSCR_NR": null,
    "GESCH_ANZ": 5,
    "HA_NAME": null,
    "IDENT_1": null,
    "IDENT_2": null,
    "IDENT_3": null,
    "L_BAUJ": "1848 -1918",
    "L_BAUTYP": "W3.3.-Mieth.s.d.Gründerzeit-Doppeltrakter mit Verbindungstr.",
    "L_NUTZUNG": "Wohnnutzung",
    "NS": "DK",
    "OBJECTID": 175021810,
    "ORIG_DACH": 0,
    "ORIG_FASS": 0,
    "ORIG_FENSTER": 0,
    "ORIG_KERN": 0,
    "ORIG_PARZ": 0,
    "PR_MA19": 14,
    "SE_ANNO_CAD_DATA": null,
    "STGA": null,
    "STGN": null,
    "STRCD": "05278",
    "STRNAML": "Wiedner Gürtel",
    "VONA": null,
    "VONN": 26
   },
   "type": "Feature"
  },
  {
   "geometry": {
    "coordinates": [
     16.37619193,
     48.18755698
    ],
    "type": "Point"
   },
   "geometry_name": "SHAPE",
   "id": "GEBAEUDEINFOOGD.175021823",
   "properties": {
    "ACD": "008160",
    "ARCHITEKT": null,
    "BASIS_INV": "1997-09-14Z",
    "BAUJAHR": null,
    "BEZ": "04",
    "BISA": null,
    "BISN": null,
    "CONSCR_NR": null,
    "GESCH_ANZ": 5,
    "HA_NAME": null,
    "IDENT_1": null,
    "IDENT_2": null,
    "IDENT_3": null,
    "L_BAUJ": "1848 -1918",
    "L_BAUTYP": "W3.1.-Mieth.s.d.Gründerzeit-Straßentrakter",
    "L_NUTZUNG": "Wohnnutzung",
    "NS": "S",
    "OBJECTID": 175021823,
    "ORIG_DACH": 0,
    "ORIG_FASS": 0,
    "ORIG_FENSTER": 0,
    "ORIG_KERN": 0,
    "ORIG_PARZ": 0,
    "PR_MA19": 14,
    "SE_ANNO_CAD_DATA": null,
    "STGA": null,
    "STGN": null,
    "STRCD": "04215",
    "STRNAML": "Schelleingasse",
    "VONA": null,
    "VONN": 5
   },
   "type": "Feature"
  },
  {
   "geometry": {
    "coordinates": [
     16.37605519,
     48.18604823
    ],
    "type": "Point"
   },
   "geometry_name": "SHAPE",
   "id": "GEBAEUDEINFOOGD.175026363",
   "properties": {
    "ACD": "146071",
    "ARCHITEKT": "Ullrich, Hülle und Pabst",
    "BASIS_INV": null,
    "BAUJAHR": 1957,
    "BEZ": "10",
    "BISA": null,
    "BISN": null,
    "CONSCR_NR": null,
    "GESCH_ANZ": 0,
    "HA_NAME": "Postzentrum Wien Süd",
    "IDENT_1": null,
    "IDENT_2": null,
    "IDENT_3": null,
    "L_BAUJ": "1946-1976",
    "L_BAUTYP": "Keine Angabe",
    "L_NUTZUNG": "keine Angabe",
    "NS": null,
    "OBJECTID": 175026363,
    "ORIG_DACH": 0,
    "ORIG_FASS": 0,
    "ORIG_FENSTER": 0,
    "ORIG_KERN": 0,
    "ORIG_PARZ": 0,
    "PR_MA19": 1,
    "SE_ANNO_CAD_DATA": null,
    "STGA": null,
    "STGN": null,
    "STRCD": "05278",
    "STRNAML": "Wiedner Gürtel",
    "VONA": "C",
    "VONN": 1
   },
   "type": "Feature"
  },
  {
   "geometry": {
    "coordinates": [
     16.3803403,
     48.18773713
    ],
    "type": "Point"
   },
   "geometry_name": "SHAPE",
   "id": "GEBAEUDEINFOOGD.174998942",
   "properties": {
    "ACD": "104034",
    "ARCHITEKT": "Hrdlicka Heinrich",
    "BASIS_INV": null,
    "BAUJAHR": 1951,
    "BEZ": "10",
    "BISA": "A",
    "BISN": 1,
    "CONSCR_NR": null,
    "GESCH_ANZ": 0,
    "HA_NAME": "Südbahnhof",
    "IDENT_1": null,
    "IDENT_2": null,
    "IDENT_3": null,
    "L_BAUJ": "1946-1976",
    "L_BAUTYP": "Keine Angabe",
    "L_NUTZUNG": "keine Angabe",
    "NS": null,
    "OBJECTID": 174998942,
    "ORIG_DACH": 0,
    "ORIG_FASS": 0,
    "ORIG_FENSTER": 0,
    "ORIG_KERN": 0,
    "ORIG_PARZ": 0,
    "PR_MA19": 1,
    "SE_ANNO_CAD_DATA": null,
    "STGA": null,
    "STGN": null,
    "STRCD": "05278",
    "STRNAML": "Wiedner Gürtel",
    "VONA": null,
    "VONN": 1
   },
   "type": "Feature"
  },
  {
   "geometry": {
    "coordinates": [
     16.37699503,
     48.18745894
    ],
    "type": "Point"
   },
   "geometry_name": "SHAPE",
   "id": "GEBAEUDEINFOOGD.175021153",
   "properties": {
    "ACD": "008152",
    "ARCHITEKT": "Merz Oskar",
    "BASIS_INV": "1999-10-30Z",
    "BAUJAHR": 1881,
    "BEZ": "04",
    "BISA": null,
    "BISN": null,
    "CONSCR_NR": null,
    "GESCH_ANZ": 4,
    "HA_NAME": null,
    "IDENT_1": "Wiedner Gürtel 20",
    "IDENT_2": null,
    "IDENT_3": null,
    "L_BAUJ": "1860-1883",
    "L_BAUTYP": "W3.7.-Mieth.s.d.Gründerzeit-Eckhaus",
    "L_NUTZUNG": "Wohnnutzung",
    "NS": "K",
    "OBJECTID": 175021153,
    "ORIG_DACH": -1,
    "ORIG_FASS": -1,
    "ORIG_FENSTER": -1,
    "ORIG_KERN": -1,
    "ORIG_PARZ": -1,
    "PR_MA19": 13,
    "SE_ANNO_CAD_DATA": null,
    "STGA": null,
    "STGN": null,
    "STRCD": "00246",
    "STRNAML": "Argentinierstraße",
    "VONA": null,
    "VONN": 66
   },
   "type": "Feature"
  },
  {
   "geometry": {
    "coordinates": [
     16.37710589,
     48.18785425
    ],
    "type": "Point"
   },
   "geometry_name": "SHAPE",
   "id": "GEBAEUDEINFOOGD.174991612",
   "properties": {
    "ACD": "008153",
    "ARCHITEKT": "Richter Ludwig",
    "BASIS_INV": "1999-10-30Z",
    "BAUJAHR": 1898,
    "BEZ": "04",
    "BISA": null,
    "BISN": null,
    "CONSCR_NR": null,
    "GESCH_ANZ": 5,
    "HA_NAME": null,
    "IDENT_1": null,
    "IDENT_2": null,
    "IDENT_3": null,
    "L_BAUJ": "1884-1918",
    "L_BAUTYP": "W3.3.-Mieth.s.d.Gründerzeit-Doppeltrakter mit Verbindungstr.",
    "L_NUTZUNG": "Wohnnutzung",
    "NS": "K",
    "OBJECTID": 174991612,
    "ORIG_DACH": -1,
    "ORIG_FASS": -1,
    "ORIG_FENSTER": -1,
    "ORIG_KERN": -1,
    "ORIG_PARZ": -1,
    "PR_MA19": 13,
    "SE_ANNO_CAD_DATA": null,
    "STGA": null,
    "STGN": null,
    "STRCD": "00246",
    "STRNAML": "Argentinierstraße",
    "VONA": null,
    "VONN": 67
   },
   "type": "Feature"
  },
  {
   "geometry": {
    "coordinates": [
     16.37726542,
     48.18755202
    ],
    "type": "Point"
   },
   "geometry_name": "SHAPE",
   "id": "GEBAEUDEINFOOGD.175033985",
   "properties": {
    "ACD": "008155",
    "ARCHITEKT": null,
    "BASIS_INV": "1999-10-30Z",
    "BAUJAHR": 1876,
    "BEZ": "04",
    "BISA": null,
    "BISN": null,
    "CONSCR_NR": null,
    "GESCH_ANZ": 4,
    "HA_NAME": null,
    "IDENT_1": "Wiedner Gürtel 18",
    "IDENT_2": null,
    "IDENT_3": null,
    "L_BAUJ": "1860-1883",
    "L_BAUTYP": "W3.7.-Mieth.s.d.Gründerzeit-Eckhaus",
    "L_NUTZUNG": "Wohnnutzung",
    "NS": "K",
    "OBJECTID": 175033985,
    "ORIG_DACH": -1,
    "ORIG_FASS": -1,
    "ORIG_FENSTER": -1,
    "ORIG_KERN": -1,
    "ORIG_PARZ": -1,
    "PR_MA19": 13,
    "SE_ANNO_CAD_DATA": null,
    "STGA": null,
    "STGN": null,
    "STRCD": "00246",
    "STRNAML": "Argentinierstraße",
    "VONA": null,
    "VONN": 71
   },
   "type": "Feature"
  },
  {
   "geometry": {
    "coordinates": [
     16.3765928,
     48.1878493
    ],
    "type": "Point"
   },
   "geometry_name": "SHAPE",
   "id": "GEBAEUDEINFOOGD.174989364",
   "properties": {
    "ACD": "008157",
    "ARCHITEKT": "Stierlin Hermann",
    "BASIS_INV": "1999-10-30Z",
    "BAUJAHR": 1896,
    "BEZ": "04",
    "BISA": null,
    "BISN": null,
    "CONSCR_NR": null,
    "GESCH_ANZ": 5,
    "HA_NAME": null,
    "IDENT_1": "Argentinierstraße 62",
    "IDENT_2": null,
    "IDENT_3": null,
    "L_BAUJ": "1884-1918",
    "L_BAUTYP": "W3.1.-Mieth.s.d.Gründerzeit-Straßentrakter",
    "L_NUTZUNG": "Wohnnutzung",
    "NS": "DSK",
    "OBJECTID": 174989364,
    "ORIG_DACH": 0,
    "ORIG_FASS": -1,
    "ORIG_FENSTER": -1,
    "ORIG_KERN": -1,
    "ORIG_PARZ": -1,
    "PR_MA19": 13,
    "SE_ANNO_CAD_DATA": null,
    "STGA": null,
    "STGN": null,
    "STRCD": "04215",
    "STRNAML": "Schelleingasse",
    "VONA": null,
    "VONN": 2
   },
   "type": "Feature"
  },
  {
   "geometry": {
    "coordinates": [
     16.37717209,
     48.1877213
    ],
    "type": "Point"
   },
   "geometry_name": "SHAPE",
   "id": "GEBAEUDEINFOOGD.174983482",
   "properties": {
    "ACD": "008154",
    "ARCHITEKT": "Reiser Ignaz",
    "BASIS_INV": "1999-10-30Z",
    "BAUJAHR": 1891,
    "BEZ": "04",
    "BISA": null,
    "BISN": null,
    "CONSCR_NR": null,
    "GESCH_ANZ": 5,
    "HA_NAME": null,
    "IDENT_1": null,
    "IDENT_2": null,
    "IDENT_3": null,
    "L_BAUJ": "1884-1918",
    "L_BAUTYP": "W3.3.-Mieth.s.d.Gründerzeit-Doppeltrakter mit Verbindungstr.",
    "L_NUTZUNG": "Wohnnutzung",
    "NS": "K",
    "OBJECTID": 174983482,
    "ORIG_DACH": -1,
    "ORIG_FASS": -1,
    "ORIG_FENSTER": -1,
    "ORIG_KERN": -1,
    "ORIG_PARZ": -1,
    "PR_MA19": 13,
    "SE_ANNO_CAD_DATA": null,
    "STGA": null,
    "STGN": null,
    "STRCD": "00246",
    "STRNAML": "Argentinierstraße",
    "VONA": null,
    "VONN": 69
   },
   "type": "Feature"
  },
  {
   "geometry": {
    "coordinates": [
     16.37691566,
     48.18760736
    ],
    "type": "Point"
   },
   "geometry_name": "SHAPE",
   "id": "GEBAEUDEINFOOGD.175020564",
   "properties": {
    "ACD": "008149",
    "ARCHITEKT": "Oskar Merz",
    "BASIS_INV": "1999-10-30Z",
    "BAUJAHR": 1881,
    "BEZ": "04",
    "BISA": null,
    "BISN": null,
    "CONSCR_NR": null,
    "GESCH_ANZ": 5,
    "HA_NAME": null,
    "IDENT_1": null,
    "IDENT_2": null,
    "IDENT_3": null,
    "L_BAUJ": "1860-1883",
    "L_BAUTYP": "W3.1.-Mieth.s.d.Gründerzeit-Straßentrakter",
    "L_NUTZUNG": "Wohnnutzung",
    "NS": "K",
    "OBJECTID": 175020564,
    "ORIG_DACH": 0,
    "ORIG_FASS": 0,
    "ORIG_FENSTER": 0,
    "ORIG_KERN": 0,
    "ORIG_PARZ": 0,
    "PR_MA19": 13,
    "SE_ANNO_CAD_DATA": null,
    "STGA": null,
    "STGN": null,
    "STRCD": "00246",
    "STRNAML": "Argentinierstraße",
    "VONA": null,
    "VONN": 64
   },
   "type": "Feature"
  },
  {
   "geometry": {
    "coordinates": [
     16.37606767,
     48.18704702
    ],
    "type": "Point"
   },
   "geometry_name": "SHAPE",
   "id": "GEBAEUDEINFOOGD.174986516",
   "properties": {
    "ACD": "008207",
    "ARCHITEKT": null,
    "BASIS_INV": "1997-09-14Z",
    "BAUJAHR": null,
    "BEZ": "04",
    "BISA": null,
    "BISN": null,
    "CONSCR_NR": null,
    "GESCH_ANZ": 5,
    "HA_NAME": null,
    "IDENT_1": null,
    "IDENT_2": null,
    "IDENT_3": null,
    "L_BAUJ": "1848 -1918",
    "L_BAUTYP": "W3.3.-Mieth.s.d.Gründerzeit-Doppeltrakter mit Verbindungstr.",
    "L_NUTZUNG": "Wohnnutzung",
    "NS": "DK",
    "OBJECTID": 174986516,
    "ORIG_DACH": 0,
    "ORIG_FASS": 0,
    "ORIG_FENSTER": 0,
    "ORIG_KERN": 0,
    "ORIG_PARZ": 0,
    "PR_MA19": 14,
    "SE_ANNO_CAD_DATA": null,
    "STGA": null,
    "STGN": null,
    "STRCD": "05278",
    "STRNAML": "Wiedner Gürtel",
    "VONA": null,
    "VONN": 28
   },
   "type": "Feature"
  },
  {
   "geometry": {
    "coordinates": [
     16.37608418,
     48.18303197
    ],
    "type": "Point"
   },
   "geometry_name": "SHAPE",
   "id": "GEBAEUDEINFOOGD.174983535",
   "properties": {
    "ACD": "100932",
    "ARCHITEKT": null,
    "BASIS_INV": "1996-10-31Z",
    "BAUJAHR": null,
    "BEZ": "10",
    "BISA": null,
    "BISN": 3,
    "CONSCR_NR": null,
    "GESCH_ANZ": 0,
    "HA_NAME": null,
    "IDENT_1": null,
    "IDENT_2": null,
    "IDENT_3": null,
    "L_BAUJ": "1919 - 1945",
    "L_BAUTYP": "Keine Angabe",
    "L_NUTZUNG": "betriebliche Nutzung",
    "NS": null,
    "OBJECTID": 174983535,
    "ORIG_DACH": 0,
    "ORIG_FASS": 0,
    "ORIG_FENSTER": 0,
    "ORIG_KERN": 0,
    "ORIG_PARZ": 0,
    "PR_MA19": 14,
    "SE_ANNO_CAD_DATA": null,
    "STGA": null,
    "STGN": null,
    "STRCD": "03912",
    "STRNAML": "Reisingergasse",
    "VONA": null,
    "VONN": 1
   },
   "type": "Feature"
  },
  {
   "geometry": {
    "coordinates": [
     16.37629635,
     48.18350683
    ],
    "type": "Point"
   },
   "geometry_name": "SHAPE",
   "id": "GEBAEUDEINFOOGD.175036027",
   "properties": {
    "ACD": "142087",
    "ARCHITEKT": null,
    "BASIS_INV": "1996-10-31Z",
    "BAUJAHR": null,
    "BEZ": "10",
    "BISA": null,
    "BISN": null,
    "CONSCR_NR": null,
    "GESCH_ANZ": 0,
    "HA_NAME": null,
    "IDENT_1": null,
    "IDENT_2": null,
    "IDENT_3": null,
    "L_BAUJ": "nach 1945",
    "L_BAUTYP": "Keine Angabe",
    "L_NUTZUNG": "betriebliche Nutzung",
    "NS": null,
    "OBJECTID": 175036027,
    "ORIG_DACH": 0,
    "ORIG_FASS": 0,
    "ORIG_FENSTER": 0,
    "ORIG_KERN": 0,
    "ORIG_PARZ": 0,
    "PR_MA19": 14,
    "SE_ANNO_CAD_DATA": null,
    "STGA": null,
    "STGN": null,
    "STRCD": "04587",
    "STRNAML": "Sonnwendgasse",
    "VONA": null,
    "VONN": 8
   },
   "type": "Feature"
  },
  {
   "geometry": {
    "coordinates": [
     16.37771504,
     48.18756642
    ],
    "type": "Point"
   },
   "geometry_name": "SHAPE",
   "id": "GEBAEUDEINFOOGD.174986591",
   "properties": {
    "ACD": "008168",
    "ARCHITEKT": null,
    "BASIS_INV": "1997-09-14Z",
    "BAUJAHR": null,
    "BEZ": "04",
    "BISA": null,
    "BISN": null,
    "CONSCR_NR": null,
    "GESCH_ANZ": 5,
    "HA_NAME": null,
    "IDENT_1": null,
    "IDENT_2": null,
    "IDENT_3": null,
    "L_BAUJ": "1848 -1918",
    "L_BAUTYP": "W3.1.-Mieth.s.d.Gründerzeit-Straßentrakter",
    "L_NUTZUNG": "betriebliche Nutzung",
    "NS": "DS",
    "OBJECTID": 174986591,
    "ORIG_DACH": 0,
    "ORIG_FASS": 0,
    "ORIG_FENSTER": 0,
    "ORIG_KERN": 0,
    "ORIG_PARZ": 0,
    "PR_MA19": 14,
    "SE_ANNO_CAD_DATA": null,
    "STGA": null,
    "STGN": null,
    "STRCD": "05278",
    "STRNAML": "Wiedner Gürtel",
    "VONA": null,
    "VONN": 16
   },
   "type": "Feature"
  },
  {
   "geometry": {
    "coordinates": [
     16.37670611,
     48.18724968
    ],
    "type": "Point"
   },
   "geometry_name": "SHAPE",
   "id": "GEBAEUDEINFOOGD.175039970",
   "properties": {
    "ACD": "008169",
    "ARCHITEKT": null,
    "BASIS_INV": "1997-09-14Z",
    "BAUJAHR": null,
    "BEZ": "04",
    "BISA": null,
    "BISN": null,
    "CONSCR_NR": null,
    "GESCH_ANZ": 4,
    "HA_NAME": null,
    "IDENT_1": null,
    "IDENT_2": null,
    "IDENT_3": null,
    "L_BAUJ": "1848 -1918",
    "L_BAUTYP": "W3.1.-Mieth.s.d.Gründerzeit-Straßentrakter",
    "L_NUTZUNG": "Wohnnutzung",
    "NS": "K",
    "OBJECTID": 175039970,
    "ORIG_DACH": 0,
    "ORIG_FASS": 0,
    "ORIG_FENSTER": 0,
    "ORIG_KERN": 0,
    "ORIG_PARZ": 0,
    "PR_MA19": 14,
    "SE_ANNO_CAD_DATA": null,
    "STGA": null,
    "STGN": null,
    "STRCD": "05278",
    "STRNAML": "Wiedner Gürtel",
    "VONA": null,
    "VONN": 22
   },
   "type": "Feature"
  },
  {
   "geometry": {
    "coordinates": [
     16.37651603,
     48.18718869
    ],
    "type": "Point"
   },
   "geometry_name": "SHAPE",
   "id": "GEBAEUDEINFOOGD.175015843",
   "properties": {
    "ACD": "008170",
    "ARCHITEKT": null,
    "BASIS_INV": "1997-09-14Z",
    "BAUJAHR": null,
    "BEZ": "04",
    "BISA": null,
    "BISN": null,
    "CONSCR_NR": null,
    "GESCH_ANZ": 9,
    "HA_NAME": null,
    "IDENT_1": null,
    "IDENT_2": null,
    "IDENT_3": null,
    "L_BAUJ": "nach 1945",
    "L_BAUTYP": "W4.1.-soz.u.gemeinn.Wohnb.-Baulückenbebauungen",
    "L_NUTZUNG": "Wohnnutzung",
    "NS": "K",
    "OBJECTID": 175015843,
    "ORIG_DACH": 0,
    "ORIG_FASS": 0,
    "ORIG_FENSTER": 0,
    "ORIG_KERN": 0,
    "ORIG_PARZ": 0,
    "PR_MA19": 14,
    "SE_ANNO_CAD_DATA": null,
    "STGA": null,
    "STGN": null,
    "STRCD": "05278",
    "STRNAML": "Wiedner Gürtel",
    "VONA": null,
    "VONN": 24
   },
   "type": "Feature"
  },
  {
   "geometry": {
    "coordinates": [
     16.37645059,
     48.18761022
    ],
    "type": "Point"
   },
   "geometry_name": "SHAPE",
   "id": "GEBAEUDEINFOOGD.175038228",
   "properties": {
    "ACD": "008158",
    "ARCHITEKT": null,
    "BASIS_INV": "1997-09-14Z",
    "BAUJAHR": null,
    "BEZ": "04",
    "BISA": null,
    "BISN": null,
    "CONSCR_NR": null,
    "GESCH_ANZ": 6,
    "HA_NAME": null,
    "IDENT_1": null,
    "IDENT_2": null,
    "IDENT_3": null,
    "L_BAUJ": "nach 1945",
    "L_BAUTYP": "W4.1.-soz.u.gemeinn.Wohnb.-Baulückenbebauungen",
    "L_NUTZUNG": "Wohnnutzung",
    "NS": "DK",
    "OBJECTID": 175038228,
    "ORIG_DACH": 0,
    "ORIG_FASS": 0,
    "ORIG_FENSTER": 0,
    "ORIG_KERN": 0,
    "ORIG_PARZ": 0,
    "PR_MA19": 14,
    "SE_ANNO_CAD_DATA": null,
    "STGA": null,
    "STGN": null,
    "STRCD": "04215",
    "STRNAML": "Schelleingasse",
    "VONA": null,
    "VONN": 3
   },
   "type": "Feature"
  },
  {
   "geometry": {
    "coordinates": [
     16.37636306,
     48.18780289
    ],
    "type": "Point"
   },
   "geometry_name": "SHAPE",
   "id": "GEBAEUDEINFOOGD.175012495",
   "properties": {
    "ACD": "008159",
    "ARCHITEKT": null,
    "BASIS_INV": "1997-09-14Z",
    "BAUJAHR": null,
    "BEZ": "04",
    "BISA": null,
    "BISN": null,
    "CONSCR_NR": null,
    "GESCH_ANZ": 5,
    "HA_NAME": null,
    "IDENT_1": null,
    "IDENT_2": null,
    "IDENT_3": null,
    "L_BAUJ": "1848 -1918",
    "L_BAUTYP": "W3.1.-Mieth.s.d.Gründerzeit-Straßentrakter",
    "L_NUTZUNG": "Wohnnutzung",
    "NS": "S",
    "OBJECTID": 175012495,
    "ORIG_DACH": 0,
    "ORIG_FASS": 0,
    "ORIG_FENSTER": 0,
    "ORIG_KERN": 0,
    "ORIG_PARZ": 0,
    "PR_MA19": 14,
    "SE_ANNO_CAD_DATA": null,
    "STGA": null,
    "STGN": null,
    "STRCD": "04215",
    "STRNAML": "Schelleingasse",
    "VONA": null,
    "VONN": 4
   },
   "type": "Feature"
  },
  {
   "geometry": {
    "coordinates": [
     16.37816489,
     48.18770808
    ],
    "type": "Point"
   },
   "geometry_name": "SHAPE",
   "id": "GEBAEUDEINFOOGD.175030125",
   "properties": {
    "ACD": "104035",
    "ARCHITEKT": null,
    "BASIS_INV": "1997-09-14Z",
    "BAUJAHR": null,
    "BEZ": "04",
    "BISA": null,
    "BISN": null,
    "CONSCR_NR": null,
    "GESCH_ANZ": 8,
    "HA_NAME": null,
    "IDENT_1": null,
    "IDENT_2": null,
    "IDENT_3": null,
    "L_BAUJ": "nach 1945",
    "L_BAUTYP": "W6.1.-Sonderwohnbauten-Hotel und Pension",
    "L_NUTZUNG": "betriebliche Nutzung",
    "NS": "K",
    "OBJECTID": 175030125,
    "ORIG_DACH": 0,
    "ORIG_FASS": 0,
    "ORIG_FENSTER": 0,
    "ORIG_KERN": 0,
    "ORIG_PARZ": 0,
    "PR_MA19": 14,
    "SE_ANNO_CAD_DATA": null,
    "STGA": null,
    "STGN": null,
    "STRCD": "05278",
    "STRNAML": "Wiedner Gürtel",
    "VONA": null,
    "VONN": 14
   },
   "type": "Feature"
  },
  {
   "geometry": {
    "coordinates": [
     16.37662775,
     48.18764676
    ],
    "type": "Point"
   },
   "geometry_name": "SHAPE",
   "id": "GEBAEUDEINFOOGD.175041053",
   "properties": {
    "ACD": "008156",
    "ARCHITEKT": null,
    "BASIS_INV": "1997-09-14Z",
    "BAUJAHR": null,
    "BEZ": "04",
    "BISA": null,
    "BISN": null,
    "CONSCR_NR": null,
    "GESCH_ANZ": 6,
    "HA_NAME": null,
    "IDENT_1": null,
    "IDENT_2": null,
    "IDENT_3": null,
    "L_BAUJ": "nach 1945",
    "L_BAUTYP": "W4.1.-soz.u.gemeinn.Wohnb.-Baulückenbebauungen",
    "L_NUTZUNG": "Wohnnutzung",
    "NS": "K",
    "OBJECTID": 175041053,
    "ORIG_DACH": 0,
    "ORIG_FASS": 0,
    "ORIG_FENSTER": 0,
    "ORIG_KERN": 0,
    "ORIG_PARZ": 0,
    "PR_MA19": 14,
    "SE_ANNO_CAD_DATA": null,
    "STGA": null,
    "STGN": null,
    "STRCD": "04215",
    "STRNAML": "Schelleingasse",
    "VONA": null,
    "VONN": 1
   },
   "type": "Feature"
  },
  {
   "geometry": {
    "coordinates": [
     16.37614568,
     48.18775845
    ],
    "type": "Point"
   },
   "geometry_name": "SHAPE",
   "id": "GEBAEUDEINFOOGD.175038609",
   "properties": {
    "ACD": "008161",
    "ARCHITEKT": "Hans Miska",
    "BASIS_INV": "1997-09-14Z",
    "BAUJAHR": 1910,
    "BEZ": "04",
    "BISA": null,
    "BISN": null,
    "CONSCR_NR": null,
    "GESCH_ANZ": 5,
    "HA_NAME": null,
    "IDENT_1": "Schelleingasse 8",
    "IDENT_2": null,
    "IDENT_3": null,
    "L_BAUJ": "1884-1918",
    "L_BAUTYP": "W3.3.-Mieth.s.d.Gründerzeit-Doppeltrakter mit Verbindungstr.",
    "L_NUTZUNG": "Wohnnutzung",
    "NS": "S/K",
    "OBJECTID": 175038609,
    "ORIG_DACH": -1,
    "ORIG_FASS": -1,
    "ORIG_FENSTER": -1,
    "ORIG_KERN": -1,
    "ORIG_PARZ": -1,
    "PR_MA19": 13,
    "SE_ANNO_CAD_DATA": null,
    "STGA": null,
    "STGN": null,
    "STRCD": "04215",
    "STRNAML": "Schelleingasse",
    "VONA": null,
    "VONN": 6
   },
   "type": "Feature"
  },
  {
   "geometry": {
    "coordinates": [
     16.37864999,
     48.18786106
    ],
    "type": "Point"
   },
   "geometry_name": "SHAPE",
   "id": "GEBAEUDEINFOOGD.175010866",
   "properties": {
    "ACD": "008145",
    "ARCHITEKT": "Heinz Gerl",
    "BASIS_INV": "1997-09-14Z",
    "BAUJAHR": 1900,
    "BEZ": "04",
    "BISA": null,
    "BISN": null,
    "CONSCR_NR": null,
    "GESCH_ANZ": 5,
    "HA_NAME": null,
    "IDENT_1": "Mommsengasse 30",
    "IDENT_2": null,
    "IDENT_3": null,
    "L_BAUJ": "1884-1918",
    "L_BAUTYP": "W3.3.-Mieth.s.d.Gründerzeit-Doppeltrakter mit Verbindungstr.",
    "L_NUTZUNG": "Wohnnutzung",
    "NS": "K",
    "OBJECTID": 175010866,
    "ORIG_DACH": -1,
    "ORIG_FASS": -1,
    "ORIG_FENSTER": -1,
    "ORIG_KERN": -1,
    "ORIG_PARZ": -1,
    "PR_MA19": 13,
    "SE_ANNO_CAD_DATA": null,
    "STGA": null,
    "STGN": null,
    "STRCD": "05278",
    "STRNAML": "Wiedner Gürtel",
    "VONA": null,
    "VONN": 12
   },
   "type": "Feature"
  }
 ],
 "numberMatched": 22,
 "numberReturned": 22,
 "timeStamp": "2026-08-03T23:14:50.225Z",
 "totalFeatures": 22,
 "type": "FeatureCollection"
}
